0 TIANHUI 1-02 DEB
1 38269U 12020B   13281.67117596  .00014463  00000-0  14571-2 0  2867
2 38269 097.4220 003.9845 0194627 273.0684 084.8275 14.78138140 76444
0 TIANHUI 1-02 DEB
1 38269U 12020B   13283.43119976  .00013567  00000-0  13660-2 0  2870
2 38269 097.4219 005.6089 0194547 267.2522 090.6410 14.78182882 76705
0 TIANHUI 1-02 DEB
1 38269U 12020B   13285.19118299  .00010188  00000-0  10264-2 0  2897
2 38269 097.4227 007.2319 0194670 261.4580 096.4531 14.78217032 76967
0 TIANHUI 1-02 DEB
1 38269U 12020B   13286.47730015  .00011359  00000-0  11428-2 0  2901
2 38269 097.4234 008.4190 0194690 257.2313 100.7080 14.78239230 77158
0 TIANHUI 1-02 DEB
1 38269U 12020B   13288.16952950  .00021102  00000-0  21133-2 0  2915
2 38269 097.4240 009.9806 0194566 251.6626 106.3338 14.78287579 77407
0 TIANHUI 1-02 DEB
1 38269U 12020B   13289.18483882  .00016214  00000-0  16249-2 0  2922
2 38269 097.4240 010.9177 0194557 248.3190 109.7206 14.78317747 77557
0 TIANHUI 1-02 DEB
1 38269U 12020B   13290.47086997  .00018760  00000-0  18769-2 0  2930
2 38269 097.4239 012.1048 0194531 244.0812 114.0239 14.78351711 77747
0 TIANHUI 1-02 DEB
1 38269U 12020B   13292.02760468  .00016447  00000-0  16453-2 0  2944
2 38269 097.4229 013.5415 0194429 238.9340 119.2662 14.78396104 77970
0 TIANHUI 1-02 DEB
1 38269U 12020B   13293.17820453  .00017034  00000-0  17016-2 0  2952
2 38269 097.4228 014.6041 0194475 235.1899 123.0883 14.78436205 78140
0 TIANHUI 1-02 DEB
1 38269U 12020B   13294.66717503  .00021040  00000-0  20965-2 0  2968
2 38269 097.4228 015.9784 0194524 230.3100 128.0821 14.78479766 78365
